STARLINK-1559           
1 46077U 20055BC  26068.23360559  .00042685  00000+0  14779-2 0  9995
2 46077  53.0254  76.0659 0004229  33.9710 326.1559 15.29461733309518
STARLINK-34555          
1 64665U 25139B   26068.43699988  .00014438  00000+0  49860-3 0  9994
2 64665  53.1580 128.3422 0001190  84.8527 275.2610 15.30202868 40145
